IRIDIUM 112             
1 41925U 17003J   24244.84437759  .00000221  00000+0  71819-4 0  9999
2 41925  86.4018   1.7446 0002581  91.1822 268.9670 14.34218230399480
IRIDIUM 111             
1 41926U 17003K   24244.62238293  .00000981  00000+0  34306-3 0  9990
2 41926  86.4021   1.8934 0002218  84.7066 275.4383 14.34221840399433
IRIDIUM 113             
1 42803U 17039A   24244.95119280  .00000091  00000+0  25551-4 0  9999
2 42803  86.3945 235.5080 0002355  83.4676 276.6788 14.34218555377410
IRIDIUM 123             
1 42804U 17039B   24244.78336719  .00000220  00000+0  71445-4 0  9996
2 42804  86.3914 267.0827 0002145  88.8547 271.2894 14.34220712376156
IRIDIUM 120             
1 42805U 17039C   24244.94485091 -.00000049  00000+0 -24487-4 0  9998
2 42805  86.3935 235.3780 0002144  89.5969 270.5473 14.34217524377402
IRIDIUM 115             
1 42806U 17039D   24244.91277407  .00000155  00000+0  40054-4 0  9990
2 42806  86.4471 235.4270 0002532  80.7371 279.4116 14.43267141379892
IRIDIUM 118             
1 42807U 17039E   24244.81507980  .00000145  00000+0  44659-4 0  9996
2 42807  86.3914 267.0704 0002280  96.4229 263.7226 14.34218583376153
IRIDIUM 117             
1 42808U 17039F   24244.76433949  .00000328  00000+0  11022-3 0  9994
2 42808  86.3912 267.0554 0002259  87.6581 272.4873 14.34218278376172
